LANDSAT 9               
1 49260U 21088A   24255.07665997  .00001927  00000+0  43786-3 0  9996
2 49260  98.2247 323.6100 0001294  86.7064 273.4283 14.57096027157190
